GLOBALSTAR M024         
1 25883U 99043A   24344.56030862  .00000005  00000+0  24866-2 0  9990
2 25883  52.0016  88.4835 0002384 135.7226 236.8023 11.10161863 93803
GLOBALSTAR M027         
1 25884U 99043B   24344.51037956 -.00000067  00000+0 -10894-3 0  9994
2 25884  52.0164 161.2064 0022059  47.6619 312.6039 11.04371607120285
GLOBALSTAR M054         
1 25885U 99043C   24344.36084578  .00000024  00000+0  24398-2 0  9994
2 25885  52.0160 320.6965 0005833 213.9853 295.4737 11.39207728 97413
GLOBALSTAR M053         
1 25886U 99043D   24344.49476478 -.00000057  00000+0  32530-3 0  9998
2 25886  51.9982 256.9460 0003912 105.2722  65.4492 11.27660971 98042
GLOBALSTAR M058         
1 25907U 99049A   24344.73587359 -.00000146  00000+0 -82471-3 0  9995
2 25907  51.9942 255.0579 0001111 298.5793  61.4930 11.93191965130131
GLOBALSTAR M050         
1 25908U 99049B   24344.58794758  .00000010  00000+0  11092-2 0  9990
2 25908  52.0000 277.2933 0009765  16.5945 154.0486 12.07445932125286
GLOBALSTAR M033         
1 25909U 99049C   24344.48364997 -.00000039  00000+0  50644-3 0  9997
2 25909  51.9877 162.5142 0011802 228.7717 131.2113 12.20292627512587
GLOBALSTAR M055         
1 25910U 99049D   24344.82602323 -.00000040  00000+0  46341-3 0  9996
2 25910  51.9983 181.5167 0008279  96.9444 263.2350 12.29416723145216
